#aV2019 12 27  0  0  0.00000000     288 DD+AD WGS84 FIT  NGA
## 2085 432000.00000000   300.00000000 58844 0.0000000000000
+   32     1  2  3  4  5  6  7  8  9 10 11 12 13 14 15 16 17
+         18 19 20 21 22 23 24 25 26 27 28 29 30 31 32  0  0
+          0  0  0  0  0  0  0  0  0  0  0  0  0  0  0  0  0
+          0  0  0  0  0  0  0  0  0  0  0  0  0  0  0  0  0
+          0  0  0  0  0  0  0  0  0  0  0  0  0  0  0  0  0
++         2  2  2  2  2  2  2  2  2  2  2  2  2  2  2  2  2
++         2  2  2  2  2  2  2  2  2  2  2  2  2  2  2  0  0
++         0  0  0  0  0  0  0  0  0  0  0  0  0  0  0  0  0
++         0  0  0  0  0  0  0  0  0  0  0  0  0  0  0  0  0
++         0  0  0  0  0  0  0  0  0  0  0  0  0  0  0  0  0
%c cc cc ccc ccc cccc cccc cccc cccc ccccc ccccc ccccc ccccc
%c cc cc ccc ccc cccc cccc cccc cccc ccccc ccccc ccccc ccccc
%f  0.0000000  0.000000000  0.00000000000  0.000000000000000
%f  0.0000000  0.000000000  0.00000000000  0.000000000000000
%i    0    0    0    0      0      0      0      0         0
%i    0    0    0    0      0      0      0      0         0
/*      NGA, ST. LOUIS,MO.                                  
/*   EPHEMERIS COMPUTED FROM 2 DAYS OF DATA                 
/*   EPOCHA v5 SMOOTHER                                     
/*   G1762 IERS2010 SATAF SATAPC                            
*  2019 12 27 22 40  0.00000000
P  1  -3377.694437 -14535.675564 -22175.816652   -243.617781                    
V  1  27038.259184  -5599.404984   -139.692825     -0.122374                    
P  2 -18587.221023  14619.952950  12612.742228   -374.694445                    
V  2 -15115.536395   1977.890921 -25986.351449     -0.073101                    
P  3 -11718.124817 -22146.003296  -9006.968200    -60.862099                    
V  3   9379.901938   6773.591142 -28959.312824     -0.071649                    
P  4  -1158.094529 -23322.568291  12644.995173    -26.156884                    
V  4   7562.760286 -14358.094418 -25818.306613     -0.050508                    
P  5  -6746.583488  14556.389251  21000.487227     -5.281042                    
V  5 -19366.716082 -18900.507830   7025.588551     -0.005102                    
P  6 -25817.954665   6261.121870    831.505254   -165.934116                    
V  6  -1449.041853  -1974.331571 -32091.244298     -0.107562                    
P  7 -20173.592057  -7533.619450  16137.032336   -179.317210                    
V  7  19059.016828  -5613.535930  21115.689203     -0.082747                    
P  8   5456.274531 -25660.758085  -3205.157613    -18.223932                    
V  8   3787.406016  -3176.696677  31761.057697     -0.012753                    
P  9  -9449.667689 -15773.322743  19104.885077   -118.633961                    
V  9   8455.527823 -22947.922981 -14730.371353     -0.091830                    
P 10  20703.296396   7036.755283 -15166.620969   -188.159047                    
V 10  11688.111586  15442.660422  22788.094419     -0.139448                    
P 11   -830.774998 -18645.381697 -19476.072575   -406.968568                    
V 11  19561.130876 -13676.170651  12274.389236      0.109117                    
P 12   6961.384423  22482.180831 -12699.784336    168.631595                    
V 12 -10999.519568 -11281.154992 -26294.186546     -0.040550                    
P 13 -13089.366339  22802.668840   3331.827674    -23.860121                    
V 13   -571.196535  -5102.550122  31575.105874      0.025009                    
P 14  16810.959966 -13843.953522 -14749.869803    -42.302414                    
V 14  -5197.718187  18812.786666 -23252.886775      0.022554                    
P 15  -2229.077965  25962.905983  -4224.182498   -262.686926                    
V 15  -5049.444391   4133.968607  30622.898133      0.026383                    
P 16   8668.400861 -12438.298652  21557.123208   -107.452607                    
V 16  17368.390601  21777.208533   5963.673266     -0.039393                    
P 17 -15889.966482   3246.275665 -20591.987874    188.341081                    
V 17   8890.180819 -25597.223396 -10738.070222      0.067218                    
P 18   5694.196092 -16526.742551 -20477.480900    109.567560                    
V 18  24304.197891  -5620.321467  11672.804361      0.025570                    
P 19 -17301.924964  10607.287866 -17433.461107   -220.476794                    
V 19   7434.602081 -20223.758786 -20008.555033      0.051626                    
P 20  22296.506102  13616.121092  -5447.791217    527.718024                    
V 20   2980.733654   6979.234225  29970.445568      0.000656                    
P 21  21753.198619   4931.631422  15042.111907    -64.439807                    
V 21 -16556.887741   7017.314393  23082.444829      0.056765                    
P 22  -5849.655320 -20922.386913 -15131.030198   -779.589378                    
V 22  16174.365042  11469.524353 -21693.179590     -0.016848                    
P 23  -3905.441010 -22347.569310  13842.655106   -146.860235                    
V 23   7504.753390 -15718.939040 -24244.355791      0.024155                    
P 24   1637.950978  15860.592179 -21398.447827     -6.793516                    
V 24 -26017.239537   6720.265703   3377.172014     -0.004725                    
P 25  17483.071546  20178.515807   -900.486634    -16.964912                    
V 25  -2333.024576    944.184657 -31708.272204      0.004530                    
P 26  15862.588059  -4978.132761  20733.827236    114.880166                    
V 26  17781.506978  19491.750534  -8705.237192      0.081291                    
P 27  12355.775573 -21997.938948   7640.519285   -163.511126                    
V 27   -702.850867  10187.528477  30324.378588     -0.114972                    
P 28 -19243.041192  -7744.428001 -15911.233595    748.435959                    
V 28 -11454.777170 -18093.448359  21975.537644     -0.018945                    
P 29   7335.534261  16509.415161  19432.090966      7.457736                    
V 29  -9970.103942  22601.225870 -15433.482788     -0.097310                    
P 30 -25877.414740   -148.509041   6455.582199   -115.743284                    
V 30   7452.547494  -4552.252106  29709.026536     -0.087004                    
P 31  25626.589347  -7181.672601   3238.044335    -12.658924                    
V 31   4482.721851   1659.978880 -31055.343565     -0.025101                    
P 32  16366.079916  -4136.790794 -20412.352830    168.164068                    
V 32  -6715.991342  25250.655411 -10602.853837      0.110665                    
EOF
